[{"OBJECT_NAME":"COSMO-SKYMED 3","OBJECT_ID":"2008-054A","EPOCH":"2026-03-09T22:03:15.183936","MEAN_MOTION":15.06259488,"ECCENTRICITY":0.00143526,"INCLINATION":97.8419,"RA_OF_ASC_NODE":285.8111,"ARG_OF_PERICENTER":240.3641,"MEAN_ANOMALY":119.6157,"EPHEMERIS_TYPE":0,"CLASSIFICATION_TYPE":"U","NORAD_CAT_ID":33412,"ELEMENT_SET_NO":999,"REV_AT_EPOCH":94199,"BSTAR":0.00061875413,"MEAN_MOTION_DOT":9.042e-5,"MEAN_MOTION_DDOT":0},{"OBJECT_NAME":"STARLINK-5879","OBJECT_ID":"2023-090BE","EPOCH":"2026-03-09T13:57:51.878016","MEAN_MOTION":15.0253352,"ECCENTRICITY":0.0001355,"INCLINATION":43.0021,"RA_OF_ASC_NODE":249.4964,"ARG_OF_PERICENTER":275.3502,"MEAN_ANOMALY":84.7185,"EPHEMERIS_TYPE":0,"CLASSIFICATION_TYPE":"U","NORAD_CAT_ID":57153,"ELEMENT_SET_NO":999,"REV_AT_EPOCH":15019,"BSTAR":2.3686e-5,"MEAN_MOTION_DOT":1.16e-6,"MEAN_MOTION_DDOT":0}]
